{
    "links": {
        "self": "http://www.neowsapp.com/rest/v1/neo/3785925?api_key=iIulBulltgU6a56xZRHN4H3l9WmuAYTsLGpBGhQ2"
    },
    "id": "3785925",
    "neo_reference_id": "3785925",
    "name": "(2017 TY5)",
    "designation": "2017 TY5",
    "nasa_jpl_url": "http://ssd.jpl.nasa.gov/sbdb.cgi?sstr=3785925",
    "absolute_magnitude_h": 26.3,
    "estimated_diameter": {
        "kilometers": {
            "estimated_diameter_min": 0.0146067964,
            "estimated_diameter_max": 0.0326617897
        },
        "meters": {
            "estimated_diameter_min": 14.6067964271,
            "estimated_diameter_max": 32.6617897446
        },
        "miles": {
            "estimated_diameter_min": 0.0090762397,
            "estimated_diameter_max": 0.020295089
        },
        "feet": {
            "estimated_diameter_min": 47.92256199,
            "estimated_diameter_max": 107.1581062656
        }
    },
    "is_potentially_hazardous_asteroid": false,
    "close_approach_data": [
        {
            "close_approach_date": "2017-10-10",
            "close_approach_date_full": "2017-Oct-10 22:23",
            "epoch_date_close_approach": 1507674180000,
            "relative_velocity": {
                "kilometers_per_second": "7.5037222976",
                "kilometers_per_hour": "27013.4002713601",
                "miles_per_hour": "16785.0764075015"
            },
            "miss_distance": {
                "astronomical": "0.0097171279",
                "lunar": "3.7799627531",
                "kilometers": "1453661.636357573",
                "miles": "903263.4559495874"
            },
            "orbiting_body": "Earth"
        },
        {
            "close_approach_date": "2017-10-11",
            "close_approach_date_full": "2017-Oct-11 04:57",
            "epoch_date_close_approach": 1507697820000,
            "relative_velocity": {
                "kilometers_per_second": "7.9190937893",
                "kilometers_per_hour": "28508.7376415755",
                "miles_per_hour": "17714.2208973445"
            },
            "miss_distance": {
                "astronomical": "0.0098100751",
                "lunar": "3.8161192139",
                "kilometers": "1467566.339500037",
                "miles": "911903.4378410306"
            },
            "orbiting_body": "Moon"
        }
    ],
    "orbital_data": {
        "orbit_id": "3",
        "orbit_determination_date": "2017-12-21 06:28:14",
        "first_observation_date": "2017-10-15",
        "last_observation_date": "2017-10-26",
        "data_arc_in_days": 11,
        "observations_used": 28,
        "orbit_uncertainty": "7",
        "minimum_orbit_intersection": ".00965046",
        "jupiter_tisserand_invariant": "3.921",
        "epoch_osculation": "2459000.5",
        "eccentricity": ".4563135890570432",
        "semi_major_axis": "1.81156253336672",
        "inclination": "3.074813206671595",
        "ascending_node_longitude": "25.46632639794385",
        "orbital_period": "890.5912459874204",
        "perihelion_distance": ".9849219319648821",
        "perihelion_argument": "331.4745244427039",
        "aphelion_distance": "2.638203134768557",
        "perihelion_time": "2458910.775146949115",
        "mean_anomaly": "36.26910464688637",
        "mean_motion": ".4042258461690347",
        "equinox": "J2000",
        "orbit_class": {
            "orbit_class_type": "APO",
            "orbit_class_description": "Near-Earth asteroid orbits which cross the Earth’s orbit similar to that of 1862 Apollo",
            "orbit_class_range": "a (semi-major axis) > 1.0 AU; q (perihelion) < 1.017 AU"
        }
    },
    "is_sentry_object": false
}